AMC-1 (GE-1)            
1 24315U 96054A   22202.27422826  .00000058  00000+0  00000+0 0  9991
2 24315   5.6981  72.8876 0003170  52.2620 141.6791  1.00273109 94715
AMC-3 (GE-3)            
1 24936U 97050A   22201.56850264 -.00000268  00000+0  00000+0 0  9993
2 24936   4.6246  79.2042 0002848  42.1406 309.6184  1.00272312 38113
ASTRA 1G                
1 25071U 97076A   22201.84146549  .00000107  00000+0  00000+0 0  9998
2 25071   6.3195  68.0571 0003041  53.0384 139.7910  1.00270677 90222
ASTRA 2A                
1 25462U 98050A   22202.09651898  .00000063  00000+0  00000+0 0  9992
2 25462   3.4870  85.2452 0002127  32.4953 273.0289  1.00273528 87438
AMC-4 (GE-4)            
1 25954U 99060A   22201.77122171  .00000083  00000+0  00000+0 0  9993
2 25954   1.6020  91.5432 0003114  36.6289 313.0707  1.00272996 29236
NSS-11 (AAP-1)          
1 26554U 00059A   22201.83322117  .00000021  00000+0  00000+0 0  9991
2 26554   0.0323 305.5199 0003102 163.5330 305.4814  1.00271764 26978
AMC-6 (GE-6)            
1 26580U 00067A   22201.77043691  .00000101  00000+0  00000+0 0  9998
2 26580   0.0192 329.5162 0002500 138.9142 328.4173  1.00271425 79600
ASTRA 2D                
1 26638U 00081A   22202.22480080  .00000121  00000+0  00000+0 0  9998
2 26638   7.3616  60.0884 0001781  77.5539 265.8997  1.00271670 79072
AMC-8 (GE-8)            
1 26639U 00081B   22202.05823803  .00000083  00000+0  00000+0 0  9991
2 26639   2.5286  88.2652 0003136  16.0766  80.4160  1.00271694 78960
ASTRA 2C                
1 26853U 01025A   22201.49663356 -.00000267  00000+0  00000+0 0  9995
2 26853   4.6487  79.0094 0002736  46.9210 278.6150  1.00269751 77255
ASTRA 3A                
1 27400U 02015B   22201.56553782 -.00000213  00000+0  00000+0 0  9994
2 27400   7.4626  58.9714 0001079  60.1498 296.0300  1.00272374 74400
NSS-7                   
1 27414U 02019A   22202.36818066 -.00000165  00000+0  00000+0 0  9997
2 27414   5.9757  71.0513 0002246  53.2145 287.3847  1.00271733 74255
NSS-6                   
1 27603U 02057A   22201.83609878  .00000103  00000+0  00000+0 0  9990
2 27603   1.6938  91.3233 0003412  33.7127 304.9818  1.00273439 71720
AMC-11 (GE-11)          
1 28252U 04017A   22201.62845476  .00000065  00000+0  00000+0 0  9999
2 28252   0.0566 286.4732 0002522 194.3528 272.7773  1.00271186 66567
AMC-15                  
1 28446U 04041A   22202.52757674 -.00000090  00000+0  00000+0 0  9992
2 28446   0.0559 288.3586 0002492 196.5190 259.2435  1.00272684 65048
NSS-10 (AMC-12)         
1 28526U 05003A   22202.14943002 -.00000256  00000+0  00000+0 0  9994
2 28526   2.8669  87.0289 0002798  21.9629 206.2272  1.00272202 64013
ASTRA 1KR               
1 29055U 06012A   22201.84146549  .00000117  00000+0  00000+0 0  9995
2 29055   0.0749 268.9451 0003030 259.5083  92.2657  1.00276821 31413
AMC-18                  
1 29644U 06054B   22202.50327177 -.00000217  00000+0  00000+0 0  9999
2 29644   0.0495 280.9193 0002439 203.9793 272.4928  1.00270221 57234
ASTRA 1L                
1 31306U 07016A   22201.58664031  .00000115  00000+0  00000+0 0  9992
2 31306   0.0869 295.3333 0000646 165.6055  67.7679  1.00272387 30702
ASTRA 4A (SIRIUS 4)     
1 32299U 07057A   22201.87080451  .00000029  00000+0  00000+0 0  9993
2 32299   0.0157 344.1804 0002863 138.3919 134.3269  1.00273226 53646
AMC-21                  
1 33275U 08038B   22202.13198997  .00000033  00000+0  00000+0 0  9998
2 33275   0.0487 286.6102 0003035 206.9912  87.8631  1.00272397 51152
ASTRA 1M                
1 33436U 08057A   22202.23035785  .00000117  00000+0  00000+0 0  9997
2 33436   0.0368  97.9754 0005231  33.9702 269.1023  1.00271776 50171
CIEL-2                  
1 33453U 08063A   22202.53868803  .00000056  00000+0  00000+0 0  9993
2 33453   0.0416 242.0374 0002939 238.0087 244.2928  1.00273213 49827
NSS-9                   
1 33749U 09008A   22202.27204975  .00000069  00000+0  00000+0 0  9990
2 33749   0.0149   2.1368 0002009 124.3211  93.5453  1.00273038 49250
SES-7 (PROTOSTAR 2)     
1 34941U 09027A   22201.74793920 -.00000349  00000+0  00000+0 0  9992
2 34941   0.0089 356.7972 0001312 206.1144 113.0723  1.00270970 48302
NSS-12                  
1 36032U 09058A   22201.59419288  .00000067  00000+0  00000+0 0  9990
2 36032   0.0473 280.7402 0002820 204.4636  84.0371  1.00272899 46607
SES-1                   
1 36516U 10016A   22202.06495245 -.00000117  00000+0  00000+0 0  9990
2 36516   0.0345 295.3723 0002473 178.3336 107.4661  1.00271740 44828
ASTRA 3B                
1 36581U 10021A   22202.30500999  .00000135  00000+0  00000+0 0  9997
2 36581   0.0404 352.2364 0003389 138.5507 301.5444  1.00272208 44348
SES-3                   
1 37748U 11035A   22202.52757674 -.00000103  00000+0  00000+0 0  9993
2 37748   0.0172   6.0503 0002847 113.7925 266.3327  1.00271843 40395
ASTRA 1N                
1 37775U 11041A   22202.08893255  .00000117  00000+0  00000+0 0  9991
2 37775   0.0505  42.0647 0004306  41.3391 266.6133  1.00270568 40097
SES-2                   
1 37809U 11049A   22201.63726201 -.00000199  00000+0  00000+0 0  9994
2 37809   0.0559 279.7820 0002781 194.8908 326.1103  1.00271139 39653
QUETZSAT 1              
1 37826U 11054A   22201.51090948 -.00000246  00000+0  00000+0 0  9991
2 37826   0.0384 293.0975 0002973 195.6999 276.3800  1.00271733 39784
SES-4                   
1 38087U 12007A   22201.36318222 -.00000173  00000+0  00000+0 0  9990
2 38087   0.0096   1.9155 0002420 122.0226 282.9124  1.00271206 38173
SES-5                   
1 38652U 12036A   22201.87089171  .00000030  00000+0  00000+0 0  9995
2 38652   0.0574 288.3187 0001846 191.1281 137.6557  1.00272080 36756
ASTRA 2F                
1 38778U 12051A   22201.84146549  .00000146  00000+0  00000+0 0  9999
2 38778   0.0855 248.4625 0002889 291.5052  89.7229  1.00270961 26815
SES-6                   
1 39172U 13026A   22201.50299920 -.00000266  00000+0  00000+0 0  9990
2 39172   0.0157 355.4125 0002158 124.4481 318.9678  1.00271365 33409
O3B FM5                 
1 39188U 13031A   22201.05932790 -.00000025  00000+0  00000+0 0  9995
2 39188   0.0510  25.2045 0002570  93.3181 241.4999  5.00115279165598
O3B FM4                 
1 39189U 13031B   22201.31530811 -.00000025  00000+0  00000+0 0  9993
2 39189   0.0572 355.9812 0002534 122.9118 241.1292  5.00115416165711
O3B FM2                 
1 39190U 13031C   22201.18929477 -.00000025  00000+0  00000+0 0  9990
2 39190   0.0605 352.1188 0001114 110.6191 257.2713  4.99476742165673
O3B PFM                 
1 39191U 13031D   22202.03267839 -.00000024  00000+0  00000+0 0  9992
2 39191   0.0499  14.9384 0002657 104.4798 240.6053  5.00115696165723
ASTRA 2E                
1 39285U 13056A   22202.09076375  .00000147  00000+0  00000+0 0  9997
2 39285   0.0698 329.4783 0002264 148.6145 241.8716  1.00270719 32282
SES-8                   
1 39460U 13071A   22201.74532319 -.00000274  00000+0  00000+0 0  9997
2 39460   0.0625 257.6872 0002687 216.9453 187.1619  1.00272650 30118
ASTRA 5B                
1 39617U 14011B   22202.30666681  .00000152  00000+0  00000+0 0  9993
2 39617   0.0318 355.1764 0003738 138.3579 307.4119  1.00275123 30568
O3B FM3                 
1 40079U 14038A   22201.88752647 -.00000025  00000+0  00000+0 0  9996
2 40079   0.0546   3.3429 0005069 115.0075 241.6977  5.00115369146723
O3B FM7                 
1 40080U 14038B   22201.43381715 -.00000025  00000+0  00000+0 0  9993
2 40080   0.0588   1.8388 0000918 145.3732 212.7905  5.00115445146457
O3B FM6                 
1 40081U 14038C   22201.85997181 -.00000025  00000+0  00000+0 0  9990
2 40081   0.0542   2.3426 0002692 117.8969 239.7841  5.00115453146743
O3B FM8                 
1 40082U 14038D   22202.11381953 -.00000024  00000+0  00000+0 0  9994
2 40082   0.0543 358.9629 0002705 118.1688 242.8929  5.00115667146735
O3B FM10                
1 40348U 14083A   22201.74003489 -.00000025  00000+0  00000+0 0  9993
2 40348   0.0477   9.4971 0002639 109.4633 241.0630  5.00115149138470
O3B FM11                
1 40349U 14083B   22201.75351908 -.00000025  00000+0  00000+0 0  9997
2 40349   0.0518  11.9078 0002186 120.1181 227.9897  5.00115390138496
O3B FM12                
1 40350U 14083C   22201.98060257 -.00000024  00000+0  00000+0 0  9997
2 40350   0.0517  10.8686 0002675 112.5662 236.5877  5.00115261138662
O3B FM9                 
1 40351U 14083D   22201.20799386 -.00000025  00000+0  00000+0 0  9996
2 40351   0.0527  12.8494 0002584 106.6285 240.5445  5.00115615138633
ASTRA 2G                
1 40364U 14089A   22201.84146549  .00000146  00000+0  00000+0 0  9996
2 40364   0.0439 324.9238 0003961 124.2372 180.5583  1.00276358 27658
SES-9                   
1 41380U 16013A   22202.37827266 -.00000347  00000+0  00000+0 0  9999
2 41380   0.0469 271.1133 0001935 200.8532  71.6217  1.00271628 23447
SES-10                  
1 42432U 17017A   22201.56954904 -.00000277  00000+0  00000+0 0  9995
2 42432   0.0119  43.5204 0002767  77.4833 315.4386  1.00269667 19423
SES-15                  
1 42709U 17026A   22202.53868803  .00000058  00000+0  00000+0 0  9998
2 42709   0.0180   4.4163 0000368 129.4087 230.2124  1.00268614 19887
SES-11 (ECHOSTAR 105)   
1 42967U 17063A   22202.52757674 -.00000091  00000+0  00000+0 0  9995
2 42967   0.0150  78.5005 0002422  56.4104 249.3071  1.00271843 17506
SES-14                  
1 43175U 18012B   22201.50160398 -.00000283  00000+0  00000+0 0  9993
2 43175   0.0169 326.1206 0000983 153.3860 311.7985  1.00270842 16739
O3B FM15                
1 43231U 18024A   22201.47384987 -.00000025  00000+0  00000+0 0  9991
2 43231   0.0443   8.0749 0002879 113.8456 238.1043  5.00115997 79608
O3B FM16                
1 43232U 18024B   22201.92700496 -.00000024  00000+0  00000+0 0  9998
2 43232   0.0403   7.2798 0002844 115.4023 237.3423  5.00115864 79774
O3B FM14                
1 43233U 18024C   22201.56679103 -.00000025  00000+0  00000+0 0  9990
2 43233   0.0390   5.9851 0002648 116.9637 237.0734  5.00115274 79535
O3B FM13                
1 43234U 18024D   22200.22168240 -.00000025  00000+0  00000+0 0  9998
2 43234   0.0450  46.1600 0025751  56.6065 257.5179  5.01658775 79581
SES-12                  
1 43488U 18049A   22202.10401821 -.00000272  00000+0  00000+0 0  9994
2 43488   0.0146  50.8503 0000855 189.3840 191.0438  1.00273271 15108
O3B FM20                
1 44112U 19020A   22201.39363022 -.00000025  00000+0  00000+0 0  9995
2 44112   0.0477   8.7836 0002853 120.4639 230.7746  5.00115434 60218
O3B FM19                
1 44113U 19020B   22198.02223948 -.00000025  00000+0  00000+0 0  9993
2 44113   0.0499  34.0008 0002640  92.1302 233.8895  5.00115131 59842
O3B FM17                
1 44114U 19020C   22201.10117139 -.00000025  00000+0  00000+0 0  9992
2 44114   0.0450 344.4408 0002974 138.2141 237.3704  5.00115521 60084
O3B FM18                
1 44115U 19020D   22201.44749431 -.00000025  00000+0  00000+0 0  9996
2 44115   0.0478   9.2519 0002886 109.7734 241.0004  5.00115755 60227
SES-17                  
1 49332U 21095A   22202.42132865 -.00000274  00000+0  00000+0 0  9999
2 49332   0.0156  93.9525 0001070  41.0125 248.7537  1.00273291  3531
SES-22                  
1 52933U 22071A   22201.76982650  .00000111  00000+0  00000+0 0  9995
2 52933   0.0554 267.2122 0000611 291.6722 234.7722  1.00272080   251
